[Satellite]
VERSION=1.1
NAME=STARLINK-4771
NICKNAME=STARLINK-4771
TLE1=1 53833U 22114R   22291.58334491  .00043223  00000+0  31141-3 0  9991
TLE2=2 53833  53.2154 112.6031 0000829  98.6397 220.1024 15.73153835  5220
STATUS=0
